NORAD_CAT_ID,OBJECT_NAME,OBJECT_TYPE,EPOCH,MEAN_MOTION,ECCENTRICITY,INCLINATION,RA_OF_ASC_NODE,ARG_OF_PERICENTER,MEAN_ANOMALY,BSTAR,MEAN_MOTION_DOT,MEAN_MOTION_DDOT,TLE_LINE0,TLE_LINE1,TLE_LINE2,SEMIMAJOR_AXIS,PERIOD,APOGEE,PERIGEE,DECAYED
50178.0,STARLINK-3284,PAYLOAD,2022-11-23 06:27:02,15.08825253,0.0002572,53.2177,246.9891,33.7866,326.3289,6.188e-05,6.96e-06,0.0,0 STARLINK-3284,1 50178U 21125Y   22327.26878432  .00000696  00000-0  61880-4 0  9996,2 50178  53.2177 246.9891 0002572  33.7866 326.3289 15.08825253 54580,6917.925,95.438,541.57,538.011,0.0
50178.0,STARLINK-3284,PAYLOAD,2022-11-23 08:02:25,15.08827365,0.0002561,53.2178,246.6918,34.3234,325.7923,7.4402e-05,8.96e-06,0.0,0 STARLINK-3284,1 50178U 21125Y   22327.33502280  .00000896  00000-0  74402-4 0  9995,2 50178  53.2178 246.6918 0002561  34.3234 325.7923 15.08827365 55127,6917.919,95.438,541.556,538.012,0.0
50178.0,STARLINK-3284,PAYLOAD,2022-11-24 03:07:03,15.08834115,0.0002581,53.2169,243.1233,35.6218,324.4946,-5.8291e-05,-1.216e-05,0.0,0 STARLINK-3284,1 50178U 21125Y   22328.12990322 -.00001216  00000-0 -58291-4 0  9998,2 50178  53.2169 243.1233 0002581  35.6218 324.4946 15.08834115 54713,6917.898,95.438,541.549,537.9780000000002,0.0
50178.0,STARLINK-3284,PAYLOAD,2022-11-25 04:33:13,15.08834422,0.0002669,53.2173,238.3663,35.5159,324.601,0.00011358,1.519e-05,0.0,0 STARLINK-3284,1 50178U 21125Y   22329.18974006  .00001519  00000-0  11358-3 0  9992,2 50178  53.2173 238.3663 0002669  35.5159 324.6010 15.08834422 54873,6917.897,95.438,541.609,537.9159999999998,0.0
50178.0,STARLINK-3284,PAYLOAD,2022-11-25 10:54:45,15.08843222,0.0002656,53.2174,237.1768,35.9719,324.1451,0.00018287,2.623e-05,0.0,0 STARLINK-3284,1 50178U 21125Y   22329.45469526  .00002623  00000-0  18287-3 0  9993,2 50178  53.2174 237.1768 0002656  35.9719 324.1451 15.08843222 54916,6917.871,95.437,541.573,537.898,0.0
50178.0,STARLINK-3284,PAYLOAD,2022-11-26 04:24:03,15.08735698,0.0003078999999999,53.2174,233.9062,51.4112,308.7155,0.0016766,0.00026421,0.0,0 STARLINK-3284,1 50178U 21125Y   22330.18336856  .00026421  00000-0  16766-2 0  9995,2 50178  53.2174 233.9062 0003079  51.4112 308.7155 15.08735698 55026,6918.199000000001,95.444,542.194,537.934,0.0
50178.0,STARLINK-3284,PAYLOAD,2022-11-26 10:45:32,15.08847744,0.0002701,53.2177,232.7167,38.6847,321.4338,0.00020738,3.014e-05,0.0,0 STARLINK-3284,1 50178U 21125Y   22330.44829156  .00003014  00000-0  20738-3 0  9992,2 50178  53.2177 232.7167 0002701  38.6847 321.4338 15.08847744 55060,6917.857,95.437,541.59,537.8530000000002,0.0
50178.0,STARLINK-3284,PAYLOAD,2022-11-26 18:42:27,15.08853055,0.0002716,53.2185,231.2296,39.6879,320.4311,0.00010644,1.407e-05,0.0,0 STARLINK-3284,1 50178U 21125Y   22330.77949009  .00001407  00000-0  10644-3 0  9997,2 50178  53.2185 231.2296 0002716  39.6879 320.4311 15.08853055 55644,6917.84,95.437,541.5840000000002,537.827,0.0
50178.0,STARLINK-3284,PAYLOAD,2022-11-27 10:36:20,15.08840103,0.0002748,53.2179,228.2561,39.3641,320.7551,-4.6963e-05,-1.036e-05,0.0,0 STARLINK-3284,1 50178U 21125Y   22331.44189831 -.00001036  00000-0 -46963-4 0  9995,2 50178  53.2179 228.2561 0002748  39.3641 320.7551 15.08840103 55219,6917.88,95.438,541.646,537.844,0.0
50178.0,STARLINK-3284,PAYLOAD,2022-11-28 02:30:12,15.08831158,0.0002734,53.2169,225.282,39.1662,320.9528,-6.636e-05,-1.344e-05,0.0,0 STARLINK-3284,1 50178U 21125Y   22332.10430657 -.00001344  00000-0 -66360-4 0  9999,2 50178  53.2169 225.2820 0002734  39.1662 320.9528 15.08831158 55316,6917.906999999997,95.438,541.664,537.881,0.0
50178.0,STARLINK-3284,PAYLOAD,2022-11-28 23:10:11,15.08846964,0.0002628999999999,53.2172,221.4157,40.0611,320.0575,3.7617e-05,3.1e-06,0.0,0 STARLINK-3284,1 50178U 21125Y   22332.96541265  .00000310  00000-0  37617-4 0  9994,2 50178  53.2172 221.4157 0002629  40.0611 320.0575 15.08846964 55447,6917.859,95.437,541.543,537.905,0.0
50178.0,STARLINK-3284,PAYLOAD,2022-11-29 18:14:49,15.08840038,0.000263,53.2167,217.8481,37.0976,323.0197,0.00022303,3.263e-05,0.0,0 STARLINK-3284,1 50178U 21125Y   22333.76029313  .00003263  00000-0  22303-3 0  9993,2 50178  53.2167 217.8481 0002630  37.0976 323.0197 15.08840038 55564,6917.88,95.438,541.565,537.9259999999998,0.0
50178.0,STARLINK-3284,PAYLOAD,2022-11-29 23:00:59,15.08838032,0.0002302,53.2178,216.9559,40.7326,319.3838,0.00011688,1.572e-05,0.0,0 STARLINK-3284,1 50178U 21125Y   22333.95901660  .00001572  00000-0  11688-3 0  9993,2 50178  53.2178 216.9559 0002302  40.7326 319.3838 15.08838032 56122,6917.886,95.438,541.344,538.159,0.0
50178.0,STARLINK-3284,PAYLOAD,2022-11-30 16:30:13,15.0884233,0.0002537,53.217,213.6852,39.7109,320.4068,1.5972e-05,-3.4e-07,0.0,0 STARLINK-3284,1 50178U 21125Y   22334.68765876 -.00000034  00000-0  15972-4 0  9995,2 50178  53.2170 213.6852 0002537  39.7109 320.4068 15.08842330 55708,6917.873000000001,95.437,541.493,537.9830000000002,0.0
50178.0,STARLINK-3284,PAYLOAD,2022-11-30 18:05:37,15.08839554,0.0002465,53.2172,213.3866,40.5711,319.5464,-8.3945e-06,-4.22e-06,0.0,0 STARLINK-3284,1 50178U 21125Y   22334.75390075 -.00000422  00000-0 -83945-5 0  9996,2 50178  53.2172 213.3866 0002465  40.5711 319.5464 15.08839554 56244,6917.882,95.438,541.452,538.0409999999998,0.0
50178.0,STARLINK-3284,PAYLOAD,2022-11-30 22:51:46,15.08836135,0.0002604,53.2167,212.4959,36.9639,323.1532,-3.1556e-05,-7.91e-06,0.0,0 STARLINK-3284,1 50178U 21125Y   22334.95262415 -.00000791  00000-0 -31556-4 0  9993,2 50178  53.2167 212.4959 0002604  36.9639 323.1532 15.08836135 56276,6917.892,95.438,541.559,537.956,0.0
50178.0,STARLINK-3284,PAYLOAD,2022-12-01 16:21:00,15.08842622,0.0002366,53.2175,209.222,41.1244,318.9926,-7.684e-06,-4.11e-06,0.0,0 STARLINK-3284,1 50178U 21125Y   22335.68125895 -.00000411  00000-0 -76840-5 0  9999,2 50178  53.2175 209.2220 0002366  41.1244 318.9926 15.08842622 56384,6917.871999999999,95.437,541.374,538.101,0.0
50178.0,STARLINK-3284,PAYLOAD,2022-12-01 22:42:33,15.08849078,0.0002991,53.2173,208.0346,33.6334,326.4847,-0.00013693,-2.468e-05,0.0,0 STARLINK-3284,1 50178U 21125Y   22335.94621959 -.00002468  00000-0 -13693-3 0  9999,2 50178  53.2173 208.0346 0002991  33.6334 326.4847 15.08849078 55891,6917.853,95.437,541.7869999999998,537.649,0.0
50178.0,STARLINK-3284,PAYLOAD,2022-12-02 11:25:39,15.08829999,0.0002638,53.2166,205.6566,35.5983,324.5185,6.342899999999999e-05,7.21e-06,0.0,0 STARLINK-3284,1 50178U 21125Y   22336.47614710  .00000721  00000-0  63429-4 0  9996,2 50178  53.2166 205.6566 0002638  35.5983 324.5185 15.08829999 55972,6917.911,95.438,541.601,537.951,0.0
50178.0,STARLINK-3284,PAYLOAD,2022-12-02 17:47:11,15.08834166,0.0002654,53.2166,204.4672,37.5815,322.5362,0.00010351,1.359e-05,0.0,0 STARLINK-3284,1 50178U 21125Y   22336.74110519  .00001359  00000-0  10351-3 0  9997,2 50178  53.2166 204.4672 0002654  37.5815 322.5362 15.08834166 56542,6917.898,95.438,541.599,537.927,0.0
50178.0,STARLINK-3284,PAYLOAD,2022-12-03 01:44:06,15.0883843,0.000268,53.2165,202.9802,38.1902,321.928,0.00013372,1.84e-05,0.0,0 STARLINK-3284,1 50178U 21125Y   22337.07230316  .00001840  00000-0  13372-3 0  9993,2 50178  53.2165 202.9802 0002680  38.1902 321.9280 15.08838430 56069,6917.885,95.438,541.604,537.896,0.0
50178.0,STARLINK-3284,PAYLOAD,2022-12-03 08:05:39,15.08840474,0.0002766,53.2164,201.7908,36.9979,323.1203,0.00010272,1.347e-05,0.0,0 STARLINK-3284,1 50178U 21125Y   22337.33726353  .00001347  00000-0  10272-3 0  9991,2 50178  53.2164 201.7908 0002766  36.9979 323.1203 15.08840474 56630,6917.879,95.438,541.6569999999998,537.83,0.0
50178.0,STARLINK-3284,PAYLOAD,2022-12-03 20:48:46,15.08810852,0.0003112,53.2164,199.4121,41.9497,318.1733,0.00027535,4.093e-05,0.0,0 STARLINK-3284,1 50178U 21125Y   22337.86720036  .00004093  00000-0  27535-3 0  9992,2 50178  53.2164 199.4121 0003112  41.9497 318.1733 15.08810852 56186,6917.969,95.439,541.987,537.682,0.0
50178.0,STARLINK-3284,PAYLOAD,2022-12-03 23:59:31,15.08836651,0.0002799,53.2163,198.8172,38.5582,321.561,-8.444e-05,-1.632e-05,0.0,0 STARLINK-3284,1 50178U 21125Y   22337.99967300 -.00001632  00000-0 -84440-4 0  9990,2 50178  53.2163 198.8172 0002799  38.5582 321.5610 15.08836651 56201,6917.891,95.438,541.692,537.819,0.0
50178.0,STARLINK-3284,PAYLOAD,2022-12-04 23:50:18,15.08845509,0.0002892,53.2168,194.3567,41.2114,318.9096,9.02e-05,1.148e-05,0.0,0 STARLINK-3284,1 50178U 21125Y   22338.99326669  .00001148  00000-0  90200-4 0  9999,2 50178  53.2168 194.3567 0002892  41.2114 318.9096 15.08845509 56357,6917.864000000001,95.437,541.729,537.7280000000002,0.0
50178.0,STARLINK-3284,PAYLOAD,2022-12-05 07:47:13,15.08849785,0.0002865,53.2171,192.87,42.011,318.1101,0.00011375,1.523e-05,0.0,0 STARLINK-3284,1 50178U 21125Y   22339.32446228  .00001523  00000-0  11375-3 0  9993,2 50178  53.2171 192.8700 0002865  42.0110 318.1101 15.08849785 56931,6917.85,95.437,541.697,537.734,0.0
50178.0,STARLINK-3284,PAYLOAD,2022-12-05 18:54:56,15.08838373,0.000273,53.2166,190.7884,42.8938,317.2267,0.00013798,1.908e-05,0.0,0 STARLINK-3284,1 50178U 21125Y   22339.78814876  .00001908  00000-0  13798-3 0  9999,2 50178  53.2166 190.7884 0002730  42.8938 317.2267 15.08838373 56475,6917.885,95.438,541.639,537.862,0.0
50178.0,STARLINK-3284,PAYLOAD,2022-12-06 07:38:01,15.08841602,0.0002663,53.2167,188.4091,43.5429,316.5773,9.6091e-05,1.241e-05,0.0,0 STARLINK-3284,1 50178U 21125Y   22340.31806828  .00001241  00000-0  96091-4 0  9996,2 50178  53.2167 188.4091 0002663  43.5429 316.5773 15.08841602 57089,6917.875,95.437,541.5830000000002,537.898,0.0
50178.0,STARLINK-3284,PAYLOAD,2022-12-06 17:10:20,15.08839274,0.000263,53.2168,186.6252,44.5872,315.5331,-7.167799999999999e-06,-4.03e-06,0.0,0 STARLINK-3284,1 50178U 21125Y   22340.71551272 -.00000403  00000-0 -71678-5 0  9996,2 50178  53.2168 186.6252 0002630  44.5872 315.5331 15.08839274 57144,6917.8830000000025,95.438,541.567,537.928,0.0
